{
  "type": "FeatureCollection",
  "features": [
    {
      "type": "Feature",
      "properties": {
        "norad_id": 34350,
        "name": "IRIDIUM 33 DEB",
        "group": "iridium-33-debris",
        "lat": -69.1613360267679,
        "lon": -7.556980433486472,
        "alt_km": 763.4328717798817,
        "timestamp": "2025-12-14T05:42:18.846828+00:00",
        "meta_object_name": "IRIDIUM 33 DEB",
        "meta_object_id": "1997-051ES",
        "meta_epoch": "2025-12-13T14:00:17.029152",
        "meta_mean_motion": 14.45389199,
        "meta_eccentricity": 0.00228878,
        "meta_inclination": 86.3275,
        "meta_ra_of_asc_node": 2.4411,
        "meta_arg_of_pericenter": 132.5486,
        "meta_mean_anomaly": 356.1035,
        "meta_ephemeris_type": 0,
        "meta_classification_type": "U",
        "meta_norad_cat_id": 34350,
        "meta_element_set_no": 999,
        "meta_rev_at_epoch": 88305,
        "meta_bstar": 0.00044409912,
        "meta_mean_motion_dot": 1.586e-05,
        "meta_mean_motion_ddot": 0,
        "tle_line1": "1 34350U 97051ES  25347.58353043  .00001586  00000+0  44410-3 0  9994",
        "tle_line2": "2 34350  86.3275   2.4411 0022887 132.5486 356.1035 14.45389199883056"
      },
      "geometry": {
        "type": "Point",
        "coordinates": [
          -7.556980433486472,
          -69.1613360267679
        ]
      }
    },
    {
      "type": "Feature",
      "properties": {
        "norad_id": 34366,
        "name": "IRIDIUM 33 DEB",
        "group": "iridium-33-debris",
        "lat": -54.693015706068216,
        "lon": 43.51908733646905,
        "alt_km": 735.2764024712687,
        "timestamp": "2025-12-14T05:42:18.846838+00:00",
        "meta_object_name": "IRIDIUM 33 DEB",
        "meta_object_id": "1997-051FJ",
        "meta_epoch": "2025-12-13T15:39:41.959008",
        "meta_mean_motion": 14.54070514,
        "meta_eccentricity": 0.0022578,
        "meta_inclination": 86.3699,
        "meta_ra_of_asc_node": 48.9163,
        "meta_arg_of_pericenter": 136.7166,
        "meta_mean_anomaly": 347.3709,
        "meta_ephemeris_type": 0,
        "meta_classification_type": "U",
        "meta_norad_cat_id": 34366,
        "meta_element_set_no": 999,
        "meta_rev_at_epoch": 88195,
        "meta_bstar": 0.0012496588,
        "meta_mean_motion_dot": 5.312e-05,
        "meta_mean_motion_ddot": 0,
        "tle_line1": "1 34366U 97051FJ  25347.65256897  .00005312  00000+0  12497-2 0  9998",
        "tle_line2": "2 34366  86.3699  48.9163 0022578 136.7166 347.3709 14.54070514881955"
      },
      "geometry": {
        "type": "Point",
        "coordinates": [
          43.51908733646905,
          -54.693015706068216
        ]
      }
    },
    {
      "type": "Feature",
      "properties": {
        "norad_id": 34375,
        "name": "IRIDIUM 33 DEB",
        "group": "iridium-33-debris",
        "lat": 24.735298683068237,
        "lon": -176.25800788107267,
        "alt_km": 839.9586900543354,
        "timestamp": "2025-12-14T05:42:18.846849+00:00",
        "meta_object_name": "IRIDIUM 33 DEB",
        "meta_object_id": "1997-051FT",
        "meta_epoch": "2025-12-13T12:44:43.081152",
        "meta_mean_motion": 14.17994494,
        "meta_eccentricity": 0.01033552,
        "meta_inclination": 86.4325,
        "meta_ra_of_asc_node": 182.3799,
        "meta_arg_of_pericenter": 124.2381,
        "meta_mean_anomaly": 256.7084,
        "meta_ephemeris_type": 0,
        "meta_classification_type": "U",
        "meta_norad_cat_id": 34375,
        "meta_element_set_no": 999,
        "meta_rev_at_epoch": 86723,
        "meta_bstar": 0.00061178168,
        "meta_mean_motion_dot": 1.339e-05,
        "meta_mean_motion_ddot": 0,
        "tle_line1": "1 34375U 97051FT  25347.53105418  .00001339  00000+0  61178-3 0  9993",
        "tle_line2": "2 34375  86.4325 182.3799 0103355 124.2381 256.7084 14.17994494867239"
      },
      "geometry": {
        "type": "Point",
        "coordinates": [
          -176.25800788107267,
          24.735298683068237
        ]
      }
    },
    {
      "type": "Feature",
      "properties": {
        "norad_id": 34376,
        "name": "IRIDIUM 33 DEB",
        "group": "iridium-33-debris",
        "lat": -80.44860803608962,
        "lon": -16.75747646218315,
        "alt_km": 700.9748875070954,
        "timestamp": "2025-12-14T05:42:18.846860+00:00",
        "meta_object_name": "IRIDIUM 33 DEB",
        "meta_object_id": "1997-051FU",
        "meta_epoch": "2025-12-13T05:26:52.439712",
        "meta_mean_motion": 14.62582751,
        "meta_eccentricity": 0.00272182,
        "meta_inclination": 86.2989,
        "meta_ra_of_asc_node": 6.321,
        "meta_arg_of_pericenter": 165.0092,
        "meta_mean_anomaly": 195.1933,
        "meta_ephemeris_type": 0,
        "meta_classification_type": "U",
        "meta_norad_cat_id": 34376,
        "meta_element_set_no": 999,
        "meta_rev_at_epoch": 88014,
        "meta_bstar": 0.0024180552,
        "meta_mean_motion_dot": 0.00012374,
        "meta_mean_motion_ddot": 0,
        "tle_line1": "1 34376U 97051FU  25347.22699583  .00012374  00000+0  24181-2 0  9994",
        "tle_line2": "2 34376  86.2989   6.3210 0027218 165.0092 195.1933 14.62582751880145"
      },
      "geometry": {
        "type": "Point",
        "coordinates": [
          -16.75747646218315,
          -80.44860803608962
        ]
      }
    },
    {
      "type": "Feature",
      "properties": {
        "norad_id": 34486,
        "name": "IRIDIUM 33 DEB",
        "group": "iridium-33-debris",
        "lat": -45.787998062848494,
        "lon": 7.61683479622346,
        "alt_km": 595.0912989425369,
        "timestamp": "2025-12-14T05:42:18.846871+00:00",
        "meta_object_name": "IRIDIUM 33 DEB",
        "meta_object_id": "1997-051GB",
        "meta_epoch": "2025-12-13T12:48:30.008160",
        "meta_mean_motion": 14.9585814,
        "meta_eccentricity": 0.00137339,
        "meta_inclination": 86.394,
        "meta_ra_of_asc_node": 11.6583,
        "meta_arg_of_pericenter": 111.1727,
        "meta_mean_anomaly": 14.2632,
        "meta_ephemeris_type": 0,
        "meta_classification_type": "U",
        "meta_norad_cat_id": 34486,
        "meta_element_set_no": 999,
        "meta_rev_at_epoch": 88998,
        "meta_bstar": 0.0024346584,
        "meta_mean_motion_dot": 0.00027349,
        "meta_mean_motion_ddot": 0,
        "tle_line1": "1 34486U 97051GB  25347.53368065  .00027349  00000+0  24347-2 0  9990",
        "tle_line2": "2 34486  86.3940  11.6583 0013733 111.1727  14.2632 14.95858140889983"
      },
      "geometry": {
        "type": "Point",
        "coordinates": [
          7.61683479622346,
          -45.787998062848494
        ]
      }
    },
    {
      "type": "Feature",
      "properties": {
        "norad_id": 34487,
        "name": "IRIDIUM 33 DEB",
        "group": "iridium-33-debris",
        "lat": 45.62336614083447,
        "lon": 15.479681869814575,
        "alt_km": 738.9506921513021,
        "timestamp": "2025-12-14T05:42:18.846881+00:00",
        "meta_object_name": "IRIDIUM 33 DEB",
        "meta_object_id": "1997-051GC",
        "meta_epoch": "2025-12-13T01:29:47.810688",
        "meta_mean_motion": 14.43216844,
        "meta_eccentricity": 0.00327796,
        "meta_inclination": 86.3434,
        "meta_ra_of_asc_node": 12.2383,
        "meta_arg_of_pericenter": 127.3536,
        "meta_mean_anomaly": 296.0452,
        "meta_ephemeris_type": 0,
        "meta_classification_type": "U",
        "meta_norad_cat_id": 34487,
        "meta_element_set_no": 999,
        "meta_rev_at_epoch": 88253,
        "meta_bstar": 0.00027272149,
        "meta_mean_motion_dot": 9.43e-06,
        "meta_mean_motion_ddot": 0,
        "tle_line1": "1 34487U 97051GC  25347.06235892  .00000943  00000+0  27272-3 0  9992",
        "tle_line2": "2 34487  86.3434  12.2383 0032779 127.3536 296.0452 14.43216844882531"
      },
      "geometry": {
        "type": "Point",
        "coordinates": [
          15.479681869814575,
          45.62336614083447
        ]
      }
    },
    {
      "type": "Feature",
      "properties": {
        "norad_id": 34488,
        "name": "IRIDIUM 33 DEB",
        "group": "iridium-33-debris",
        "lat": 59.983134811898765,
        "lon": 118.68106882452788,
        "alt_km": 467.77667046581064,
        "timestamp": "2025-12-14T05:42:18.846892+00:00",
        "meta_object_name": "IRIDIUM 33 DEB",
        "meta_object_id": "1997-051GD",
        "meta_epoch": "2025-12-13T15:03:19.437120",
        "meta_mean_motion": 15.29719693,
        "meta_eccentricity": 0.00126504,
        "meta_inclination": 86.3232,
        "meta_ra_of_asc_node": 305.3742,
        "meta_arg_of_pericenter": 50.2774,
        "meta_mean_anomaly": 309.9587,
        "meta_ephemeris_type": 0,
        "meta_classification_type": "U",
        "meta_norad_cat_id": 34488,
        "meta_element_set_no": 999,
        "meta_rev_at_epoch": 89253,
        "meta_bstar": 0.0044788684,
        "meta_mean_motion_dot": 0.00131221,
        "meta_mean_motion_ddot": 0,
        "tle_line1": "1 34488U 97051GD  25347.62730830  .00131221  00000+0  44789-2 0  9992",
        "tle_line2": "2 34488  86.3232 305.3742 0012650  50.2774 309.9587 15.29719693892536"
      },
      "geometry": {
        "type": "Point",
        "coordinates": [
          118.68106882452788,
          59.983134811898765
        ]
      }
    }
  ]
}